NORAD_CAT_ID,OBJECT_NAME,OBJECT_TYPE,EPOCH,MEAN_MOTION,ECCENTRICITY,INCLINATION,RA_OF_ASC_NODE,ARG_OF_PERICENTER,MEAN_ANOMALY,BSTAR,MEAN_MOTION_DOT,MEAN_MOTION_DDOT,TLE_LINE0,TLE_LINE1,TLE_LINE2,SEMIMAJOR_AXIS,PERIOD,APOGEE,PERIGEE,DECAYED
55676.0,STARLINK-5300,PAYLOAD,2024-03-23 21:01:57,14.98334308,0.0002921,70.0,149.3657,265.5455,94.537,0.00012862,1.442e-05,0.0,0 STARLINK-5300,1 55676U 23021BA  24083.87636379  .00001442  00000-0  12862-3 0  9996,2 55676  70.0000 149.3657 0002921 265.5455  94.5370 14.98334308 62255,6950.18,96.107,574.075,570.014,0.0
55676.0,STARLINK-5300,PAYLOAD,2024-03-24 13:03:17,14.98363554,0.0003096,70.0012,147.6812,272.1975,87.8829,0.00084003,9.953e-05,0.0,0 STARLINK-5300,1 55676U 23021BA  24084.54394980  .00009953  00000-0  84003-3 0  9991,2 55676  70.0012 147.6812 0003096 272.1975  87.8829 14.98363554 62357,6950.089,96.105,574.106,569.802,0.0
55676.0,STARLINK-5300,PAYLOAD,2024-03-24 14:39:25,14.98369704,0.0003129,70.0013,147.5132,269.4075,90.6726,0.0012199,0.00014508,0.0,0 STARLINK-5300,1 55676U 23021BA  24084.61070899  .00014508  00000-0  12199-2 0  9997,2 55676  70.0013 147.5132 0003129 269.4075  90.6726 14.98369704 62664,6950.07,96.104,574.11,569.76,0.0
55676.0,STARLINK-5300,PAYLOAD,2024-03-25 05:04:38,14.98349375,0.0003146,70.0014,145.9969,269.8765,90.2033,0.00051745,6.09e-05,0.0,0 STARLINK-5300,1 55676U 23021BA  24085.21155162  .00006090  00000-0  51745-3 0  9999,2 55676  70.0014 145.9969 0003146 269.8765  90.2033 14.98349375 62450,6950.133,96.106,574.184,569.811,0.0
55676.0,STARLINK-5300,PAYLOAD,2024-03-25 13:05:18,14.98333934,0.0002991,70.0012,145.1564,261.5024,98.5796,0.00033697,3.93e-05,0.0,0 STARLINK-5300,1 55676U 23021BA  24085.54535460  .00003930  00000-0  33697-3 0  9994,2 55676  70.0012 145.1564 0002991 261.5024  98.5796 14.98333934 62502,6950.181,96.107,574.125,569.967,0.0
55676.0,STARLINK-5300,PAYLOAD,2024-03-25 21:05:59,14.98325131,0.0002907,70.0029,144.3122,264.0588,96.0239,0.00042761,5.012e-05,0.0,0 STARLINK-5300,1 55676U 23021BA  24085.87915978  .00005012  00000-0  42761-3 0  9991,2 55676  70.0029 144.3122 0002907 264.0588  96.0239 14.98325131 62551,6950.208,96.107,574.093,570.053,0.0
55676.0,STARLINK-5300,PAYLOAD,2024-03-26 05:06:40,14.98307587,0.0002995,70.0016,143.4705,263.4632,96.6186,0.00012828,1.437e-05,0.0,0 STARLINK-5300,1 55676U 23021BA  24086.21296831  .00001437  00000-0  12828-3 0  9998,2 55676  70.0016 143.4705 0002995 263.4632  96.6186 14.98307587 62602,6950.262,96.108,574.209,570.046,0.0
55676.0,STARLINK-5300,PAYLOAD,2024-03-26 13:07:21,14.983064,0.0002972,70.0008,142.6313,263.6459,96.4361,0.0003065,3.564e-05,0.0,0 STARLINK-5300,1 55676U 23021BA  24086.54677478  .00003564  00000-0  30650-3 0  9990,2 55676  70.0008 142.6313 0002972 263.6459  96.4361 14.98306400 62957,6950.266,96.109,574.196,570.065,0.0
55676.0,STARLINK-5300,PAYLOAD,2024-03-26 21:08:01,14.98314195,0.0003266,70.001,141.7874,264.0506,96.0281,0.0007472,8.83e-05,0.0,0 STARLINK-5300,1 55676U 23021BA  24086.88057725  .00008830  00000-0  74720-3 0  9991,2 55676  70.0010 141.7874 0003266 264.0506  96.0281 14.98314195 63001,6950.242,96.108,574.377,569.837,0.0
55676.0,STARLINK-5300,PAYLOAD,2024-03-27 05:08:42,14.98328252,0.0003088,70.0009,140.9461,265.3597,94.721,0.0012989,0.00015439,0.0,0 STARLINK-5300,1 55676U 23021BA  24087.21437908  .00015439  00000-0  12989-2 0  9995,2 55676  70.0009 140.9461 0003088 265.3597  94.7210 14.98328252 62755,6950.198,96.107,574.21,569.917,0.0
55676.0,STARLINK-5300,PAYLOAD,2024-03-27 13:09:22,14.98332828,0.0003163,70.0006,140.1055,266.0763,94.0035,0.00092631,0.00010978,0.0,0 STARLINK-5300,1 55676U 23021BA  24087.54817804  .00010978  00000-0  92631-3 0  9994,2 55676  70.0006 140.1055 0003163 266.0763  94.0035 14.98332828 63102,6950.184,96.107,574.247,569.851,0.0
55676.0,STARLINK-5300,PAYLOAD,2024-03-27 21:10:02,14.98343225,0.0003145,70.0006,139.2644,266.0221,94.0579,0.00094286,0.00011179,0.0,0 STARLINK-5300,1 55676U 23021BA  24087.88197443  .00011179  00000-0  94286-3 0  9993,2 55676  70.0006 139.2644 0003145 266.0221  94.0579 14.98343225 63155,6950.152,96.106,574.203,569.831,0.0
55676.0,STARLINK-5300,PAYLOAD,2024-03-28 05:10:42,14.98358619,0.0003206,70.0,138.4229,266.2666,93.8126,0.0011116,0.00013205,0.0,0 STARLINK-5300,1 55676U 23021BA  24088.21576827  .00013205  00000-0  11116-2 0  9990,2 55676  70.0000 138.4229 0003206 266.2666  93.8126 14.98358619 62902,6950.104,96.105,574.198,569.741,0.0
55676.0,STARLINK-5300,PAYLOAD,2024-03-28 13:11:22,14.9836711,0.0003231,69.9999,137.5817,267.1079,92.971,0.0010818,0.00012851,0.0,0 STARLINK-5300,1 55676U 23021BA  24088.54956100  .00012851  00000-0  10818-2 0  9996,2 55676  69.9999 137.5817 0003231 267.1079  92.9710 14.98367110 63259,6950.078,96.105,574.189,569.698,0.0
55676.0,STARLINK-5300,PAYLOAD,2024-03-29 05:12:42,14.98350637,0.0002942,70.0,135.897,269.4529,90.6293,0.00012434,1.392e-05,0.0,0 STARLINK-5300,1 55676U 23021BA  24089.21715605  .00001392  00000-0  12434-3 0  9999,2 55676  70.0000 135.8970 0002942 269.4529  90.6293 14.98350637 63054,6950.129,96.106,574.039,569.949,0.0
55676.0,STARLINK-5300,PAYLOAD,2024-03-29 13:13:22,14.98351026,0.0003103,69.9998,135.0568,267.5698,92.5106,0.00021508,2.476e-05,0.0,0 STARLINK-5300,1 55676U 23021BA  24089.55095325  .00002476  00000-0  21508-3 0  9992,2 55676  69.9998 135.0568 0003103 267.5698  92.5106 14.98351026 63404,6950.128,96.106,574.149,569.836,0.0
55676.0,STARLINK-5300,PAYLOAD,2024-03-29 19:37:54,14.98342419,0.0003038,69.9999,134.382,273.0551,87.026,-3.7091e-05,-5.36e-06,0.0,0 STARLINK-5300,1 55676U 23021BA  24089.81799404 -.00000536  00000-0 -37091-4 0  9992,2 55676  69.9999 134.3820 0003038 273.0551  87.0260 14.98342419 63142,6950.154,96.106,574.131,569.908,0.0
55676.0,STARLINK-5300,PAYLOAD,2024-03-30 13:15:23,14.98331652,0.0002588,69.9993,132.5321,264.2103,95.8761,6.6089e-06,-1.4e-07,0.0,0 STARLINK-5300,1 55676U 23021BA  24090.55236111 -.00000014  00000-0  66089-5 0  9996,2 55676  69.9993 132.5321 0002588 264.2103  95.8761 14.98331652 63258,6950.188,96.107,573.851,570.254,0.0
55676.0,STARLINK-5300,PAYLOAD,2024-03-30 19:39:55,14.9834118,0.0002909,69.9992,131.8596,264.6914,95.3913,-0.00013271,-1.677e-05,0.0,0 STARLINK-5300,1 55676U 23021BA  24090.81939504 -.00001677  00000-0 -13271-3 0  9991,2 55676  69.9992 131.8596 0002909 264.6914  95.3913 14.98341180 63592,6950.158,96.106,574.045,570.002,0.0
55676.0,STARLINK-5300,PAYLOAD,2024-03-31 13:17:24,14.98335948,0.0002872,69.9989,130.0079,265.2972,94.7859,3.0467e-05,2.71e-06,0.0,0 STARLINK-5300,1 55676U 23021BA  24091.55375274  .00000271  00000-0  30467-4 0  9995,2 55676  69.9989 130.0079 0002872 265.2972  94.7859 14.98335948 63402,6950.174,96.107,574.036,570.043,0.0
55676.0,STARLINK-5300,PAYLOAD,2024-03-31 19:41:56,14.98330769,0.0002948,69.9988,129.3329,271.6612,88.4209,-9.4783e-05,-1.224e-05,0.0,0 STARLINK-5300,1 55676U 23021BA  24091.82079850 -.00001224  00000-0 -94783-4 0  9998,2 55676  69.9988 129.3329 0002948 271.6612  88.4209 14.98330769 63445,6950.191,96.107,574.104,570.007,0.0
55676.0,STARLINK-5300,PAYLOAD,2024-04-01 13:19:26,14.98321248,0.000298,69.9986,127.4822,267.8869,92.1949,-2.8095e-05,-4.28e-06,0.0,0 STARLINK-5300,1 55676U 23021BA  24092.55516600 -.00000428  00000-0 -28095-4 0  9996,2 55676  69.9986 127.4822 0002980 267.8869  92.1949 14.98321248 63554,6950.22,96.108,574.156,570.014,0.0
55676.0,STARLINK-5300,PAYLOAD,2024-04-01 19:43:58,14.98335503,0.0002867,69.9985,126.8087,271.5121,88.571,-0.00017026,-2.124e-05,0.0,0 STARLINK-5300,1 55676U 23021BA  24092.82220029 -.00002124  00000-0 -17026-3 0  9999,2 55676  69.9985 126.8087 0002867 271.5121  88.5710 14.98335503 63594,6950.176,96.107,574.033,570.048,0.0
55676.0,STARLINK-5300,PAYLOAD,2024-04-02 11:45:18,14.9833146,0.0003162,69.9984,125.1256,269.2658,90.8138,1.3445e-05,6.7e-07,0.0,0 STARLINK-5300,1 55676U 23021BA  24093.48979990  .00000067  00000-0  13445-4 0  9994,2 55676  69.9984 125.1256 0003162 269.2658  90.8138 14.98331460 63993,6950.188,96.107,574.251,569.856,0.0
55676.0,STARLINK-5300,PAYLOAD,2024-04-02 19:45:58,14.98331204,0.0003185,69.9985,124.2838,269.1296,90.9498,9.6421e-05,1.058e-05,0.0,0 STARLINK-5300,1 55676U 23021BA  24093.82359792  .00001058  00000-0  96421-4 0  9990,2 55676  69.9985 124.2838 0003185 269.1296  90.9498 14.98331204 63741,6950.189,96.107,574.268,569.841,0.0
55676.0,STARLINK-5300,PAYLOAD,2024-04-03 11:47:19,14.98334027,0.0003238,69.9982,122.6002,268.9423,91.1366,0.00017444,1.989e-05,0.0,0 STARLINK-5300,1 55676U 23021BA  24094.49119389  .00001989  00000-0  17444-3 0  9990,2 55676  69.9982 122.6002 0003238 268.9423  91.1366 14.98334027 64149,6950.18,96.107,574.296,569.795,0.0
55676.0,STARLINK-5300,PAYLOAD,2024-04-03 19:47:59,14.9833212,0.0003225,69.9981,121.7583,269.0511,91.0278,0.00010122,1.115e-05,0.0,0 STARLINK-5300,1 55676U 23021BA  24094.82499632  .00001115  00000-0  10122-3 0  9996,2 55676  69.9981 121.7583 0003225 269.0511  91.0278 14.98332120 63892,6950.186,96.107,574.293,569.81,0.0
55676.0,STARLINK-5300,PAYLOAD,2024-04-04 11:49:20,14.98333923,0.0003215,69.998,120.0751,269.1555,90.9236,4.2952e-05,4.2e-06,0.0,0 STARLINK-5300,1 55676U 23021BA  24095.49259508  .00000420  00000-0  42952-4 0  9991,2 55676  69.9980 120.0751 0003215 269.1555  90.9236 14.98333923 64297,6950.181,96.107,574.28,569.811,0.0
55676.0,STARLINK-5300,PAYLOAD,2024-04-05 03:50:40,14.98335712,0.0003159,69.9981,118.3917,269.39,90.6897,-1.2868e-05,-2.47e-06,0.0,0 STARLINK-5300,1 55676U 23021BA  24096.16019332 -.00000247  00000-0 -12868-4 0  9997,2 55676  69.9981 118.3917 0003159 269.3900  90.6897 14.98335712 64091,6950.175,96.107,574.236,569.845,0.0
55676.0,STARLINK-5300,PAYLOAD,2024-04-05 10:15:12,14.98335035,0.0003163,69.9983,117.7185,270.1276,89.9521,1.3676e-05,7e-07,0.0,0 STARLINK-5300,1 55676U 23021BA  24096.42723210  .00000070  00000-0  13676-4 0  9993,2 55676  69.9983 117.7185 0003163 270.1276  89.9521 14.98335035 64435,6950.177,96.107,574.241,569.844,0.0
